{
    "CCSDS_OMM_VERS": "3.0",
    "COMMENT": "GENERATED VIA SPACE-TRACK.ORG API",
    "CREATION_DATE": "2025-05-22T17:14:14",
    "ORIGINATOR": "18 SPCS",
    "OBJECT_NAME": "BEIDOU IGSO-6",
    "OBJECT_ID": "2016-021A",
    "CENTER_NAME": "EARTH",
    "REF_FRAME": "TEME",
    "TIME_SYSTEM": "UTC",
    "MEAN_ELEMENT_THEORY": "SGP4",
    "EPOCH": "2025-05-22T12:48:29.295360",
    "MEAN_MOTION": "1.00291356",
    "ECCENTRICITY": "0.00539290",
    "INCLINATION": "59.6745",
    "RA_OF_ASC_NODE": "41.9384",
    "ARG_OF_PERICENTER": "229.7702",
    "MEAN_ANOMALY": "254.3012",
    "EPHEMERIS_TYPE": "0",
    "CLASSIFICATION_TYPE": "U",
    "NORAD_CAT_ID": "41434",
    "ELEMENT_SET_NO": "999",
    "REV_AT_EPOCH": "3356",
    "BSTAR": "0.00000000000000",
    "MEAN_MOTION_DOT": "-0.00000172",
    "MEAN_MOTION_DDOT": "0.0000000000000",
    "SEMIMAJOR_AXIS": "42159.246",
    "PERIOD": "1435.817",
    "APOAPSIS": "36008.472",
    "PERIAPSIS": "35553.751",
    "OBJECT_TYPE": "PAYLOAD",
    "RCS_SIZE": "LARGE",
    "COUNTRY_CODE": "PRC",
    "LAUNCH_DATE": "2016-03-29",
    "SITE": "XSC",
    "DECAY_DATE": null,
    "FILE": "4736220",
    "GP_ID": "288143432",
    "TLE_LINE0": "0 BEIDOU IGSO-6",
    "TLE_LINE1": "1 41434U 16021A   25142.53367240 -.00000172  00000-0  00000-0 0  9991",
    "TLE_LINE2": "2 41434  59.6745  41.9384 0053929 229.7702 254.3012  1.00291356 33561"
}